<?xml version="1.0" encoding="UTF-8"?>
<gpx creator="mapstogpx.com" version="1.1" schemaLocation="http://www.topografix.com/GPX/1/1 http://www.topografix.com/GPX/1/1/gpx.xsd http://www.garmin.com/xmlschemas/GpxExtensions/v3 http://www.garmin.com/xmlschemas/GpxExtensionsv3.xsd http://www.garmin.com/xmlschemas/TrackPointExtension/v1 http://www.garmin.com/xmlschemas/TrackPointExtensionv1.xsd" xmlns="http://www.topografix.com/GPX/1/1" xmlns:xsi="http://www.w3.org/2001/XMLSchema-instance" xsi:schemaLocation="http://www.topografix.com/GPX/1/1 http://www.topografix.com/GPX/1/1/gpx.xsd http://www.garmin.com/xmlschemas/GpxExtensions/v3 http://www.garmin.com/xmlschemas/GpxExtensionsv3.xsd http://www.garmin.com/xmlschemas/TrackPointExtension/v1 http://www.garmin.com/xmlschemas/TrackPointExtensionv1.xsd http://www.garmin.com/xmlschemas/PowerExtension/v1 http://www.garmin.com/xmlschemas/PowerExtensionv1.xsd http://www.topografix.com/GPX/gpx_style/0/2 http://www.topografix.com/GPX/gpx_style/0/2/gpx_style.xsd" xmlns:gpxtpx="http://www.garmin.com/xmlschemas/TrackPointExtension/v1" xmlns:gpxx="http://www.garmin.com/xmlschemas/GpxExtensions/v3" xmlns:gpxpx="http://www.garmin.com/xmlschemas/PowerExtension/v1" xmlns:gpx_style="http://www.topografix.com/GPX/gpx_style/0/2">
  <metadata>
    <name>This is how you can get to the movie event, friend.</name>
    <author>
      <name>gpx.studio</name>
      <link href="https://gpx.studio"/>
    </author>
    <link href="http://www.mapstogpx.com">
      <text>Sverrir Sigmundarson</text>
    </link>
    <time>2026-03-31T22:24:56.000Z</time>
  </metadata>
  <wpt lat="50.82203" lon="4.3890965">
    <name>Etterbeek Gare</name>
    <desc>Etterbeek Gare, 1050 Ixelles, Belgium</desc>
  </wpt>
  <wpt lat="50.8197269" lon="4.3988514">
    <name>ULB Plaine - Bâtiment Forum</name>
    <desc>ULB Plaine - Bâtiment Forum F, Bâtiment FORUM, Université libre de Bruxelles Campus de la Plaine Accès 2 - Quartier Magenta Square Lucia De Brouckère, Av. Roger Lallemand, 1050 Ixelles, Belgium</desc>
  </wpt>
  <trk>
    <name>Etterbeek Gare to ULB Plaine - Bâtiment Forum F</name>
    <trkseg>
      <trkpt lat="50.8220683" lon="4.3890501">
        <time>2026-04-09T17:00:00.000Z</time>
      </trkpt>
      <trkpt lat="50.82214" lon="4.3892">
        <time>2026-04-09T17:01:35.094Z</time>
      </trkpt>
      <trkpt lat="50.8222" lon="4.3893">
        <time>2026-04-09T17:02:44.846Z</time>
      </trkpt>
      <trkpt lat="50.82221" lon="4.38934">
        <time>2026-04-09T17:03:06.603Z</time>
      </trkpt>
      <trkpt lat="50.82224" lon="4.38939">
        <time>2026-04-09T17:03:41.479Z</time>
      </trkpt>
      <trkpt lat="50.82226" lon="4.38942">
        <time>2026-04-09T17:04:03.538Z</time>
      </trkpt>
      <trkpt lat="50.82231" lon="4.38951">
        <time>2026-04-09T17:05:04.154Z</time>
      </trkpt>
      <trkpt lat="50.82232" lon="4.38954">
        <time>2026-04-09T17:05:21.309Z</time>
      </trkpt>
      <trkpt lat="50.82237" lon="4.38965">
        <time>2026-04-09T17:06:29.847Z</time>
      </trkpt>
      <trkpt lat="50.82244" lon="4.38973">
        <time>2026-04-09T17:07:38.968Z</time>
      </trkpt>
      <trkpt lat="50.82247" lon="4.38978">
        <time>2026-04-09T17:08:13.844Z</time>
      </trkpt>
      <trkpt lat="50.8225" lon="4.38985">
        <time>2026-04-09T17:08:56.625Z</time>
      </trkpt>
      <trkpt lat="50.8226" lon="4.39005">
        <time>2026-04-09T17:11:05.626Z</time>
      </trkpt>
      <trkpt lat="50.82267" lon="4.39018">
        <time>2026-04-09T17:12:32.018Z</time>
      </trkpt>
      <trkpt lat="50.8228" lon="4.39048">
        <time>2026-04-09T17:15:36.010Z</time>
      </trkpt>
      <trkpt lat="50.82278" lon="4.39051">
        <time>2026-04-09T17:15:58.068Z</time>
      </trkpt>
      <trkpt lat="50.8228" lon="4.39053">
        <time>2026-04-09T17:16:17.007Z</time>
      </trkpt>
      <trkpt lat="50.82284" lon="4.3906">
        <time>2026-04-09T17:17:04.744Z</time>
      </trkpt>
      <trkpt lat="50.82285" lon="4.39055">
        <time>2026-04-09T17:17:31.268Z</time>
      </trkpt>
      <trkpt lat="50.82288" lon="4.39061">
        <time>2026-04-09T17:18:09.968Z</time>
      </trkpt>
      <trkpt lat="50.82291" lon="4.39067">
        <time>2026-04-09T17:18:48.668Z</time>
      </trkpt>
      <trkpt lat="50.82288" lon="4.39069">
        <time>2026-04-09T17:19:14.729Z</time>
      </trkpt>
      <trkpt lat="50.82292" lon="4.39077">
        <time>2026-04-09T17:20:06.329Z</time>
      </trkpt>
      <trkpt lat="50.8229207" lon="4.3907711">
        <time>2026-04-09T17:20:07.118Z</time>
      </trkpt>
      <trkpt lat="50.82282" lon="4.39086">
        <time>2026-04-09T17:21:39.428Z</time>
      </trkpt>
      <trkpt lat="50.82277" lon="4.3909">
        <time>2026-04-09T17:22:24.279Z</time>
      </trkpt>
      <trkpt lat="50.82273" lon="4.39094">
        <time>2026-04-09T17:23:02.157Z</time>
      </trkpt>
      <trkpt lat="50.8227" lon="4.39098">
        <time>2026-04-09T17:23:33.559Z</time>
      </trkpt>
      <trkpt lat="50.8224" lon="4.39129">
        <time>2026-04-09T17:28:20.383Z</time>
      </trkpt>
      <trkpt lat="50.82242" lon="4.39134">
        <time>2026-04-09T17:28:50.314Z</time>
      </trkpt>
      <trkpt lat="50.82236" lon="4.3914">
        <time>2026-04-09T17:29:47.132Z</time>
      </trkpt>
      <trkpt lat="50.82235" lon="4.39138">
        <time>2026-04-09T17:30:00.032Z</time>
      </trkpt>
      <trkpt lat="50.82232" lon="4.39141">
        <time>2026-04-09T17:30:28.441Z</time>
      </trkpt>
      <trkpt lat="50.82191" lon="4.39184">
        <time>2026-04-09T17:37:02.195Z</time>
      </trkpt>
      <trkpt lat="50.82183" lon="4.39199">
        <time>2026-04-09T17:38:41.480Z</time>
      </trkpt>
      <trkpt lat="50.82141" lon="4.39244">
        <time>2026-04-09T17:45:27.516Z</time>
      </trkpt>
      <trkpt lat="50.8213" lon="4.3925">
        <time>2026-04-09T17:47:00.663Z</time>
      </trkpt>
      <trkpt lat="50.82074" lon="4.39309">
        <time>2026-04-09T17:55:59.228Z</time>
      </trkpt>
      <trkpt lat="50.82049" lon="4.39337">
        <time>2026-04-09T18:00:04.413Z</time>
      </trkpt>
      <trkpt lat="50.82007" lon="4.39381">
        <time>2026-04-09T18:06:47.639Z</time>
      </trkpt>
      <trkpt lat="50.82008" lon="4.39383">
        <time>2026-04-09T18:07:00.539Z</time>
      </trkpt>
      <trkpt lat="50.82002" lon="4.39389">
        <time>2026-04-09T18:07:57.358Z</time>
      </trkpt>
      <trkpt lat="50.82" lon="4.39383">
        <time>2026-04-09T18:08:31.670Z</time>
      </trkpt>
      <trkpt lat="50.81987" lon="4.39397">
        <time>2026-04-09T18:10:37.552Z</time>
      </trkpt>
      <trkpt lat="50.81982" lon="4.39402">
        <time>2026-04-09T18:11:24.901Z</time>
      </trkpt>
      <trkpt lat="50.81979" lon="4.39406">
        <time>2026-04-09T18:11:56.304Z</time>
      </trkpt>
      <trkpt lat="50.81972" lon="4.39413">
        <time>2026-04-09T18:13:02.593Z</time>
      </trkpt>
      <trkpt lat="50.81966" lon="4.39424">
        <time>2026-04-09T18:14:16.097Z</time>
      </trkpt>
      <trkpt lat="50.81954" lon="4.39438">
        <time>2026-04-09T18:16:15.445Z</time>
      </trkpt>
      <trkpt lat="50.8195366" lon="4.3943789">
        <time>2026-04-09T18:16:18.223Z</time>
      </trkpt>
      <trkpt lat="50.81948" lon="4.39443">
        <time>2026-04-09T18:17:10.389Z</time>
      </trkpt>
      <trkpt lat="50.81954" lon="4.39456">
        <time>2026-04-09T18:18:31.819Z</time>
      </trkpt>
      <trkpt lat="50.81956" lon="4.39458">
        <time>2026-04-09T18:18:50.758Z</time>
      </trkpt>
      <trkpt lat="50.81972" lon="4.39474">
        <time>2026-04-09T18:21:22.276Z</time>
      </trkpt>
      <trkpt lat="50.81986" lon="4.39488">
        <time>2026-04-09T18:23:34.854Z</time>
      </trkpt>
      <trkpt lat="50.81987" lon="4.39489">
        <time>2026-04-09T18:23:44.323Z</time>
      </trkpt>
      <trkpt lat="50.81988" lon="4.39489">
        <time>2026-04-09T18:23:52.329Z</time>
      </trkpt>
      <trkpt lat="50.82001" lon="4.39503">
        <time>2026-04-09T18:25:58.211Z</time>
      </trkpt>
      <trkpt lat="50.82002" lon="4.39504">
        <time>2026-04-09T18:26:07.680Z</time>
      </trkpt>
      <trkpt lat="50.82008" lon="4.39513">
        <time>2026-04-09T18:27:13.858Z</time>
      </trkpt>
      <trkpt lat="50.82013" lon="4.39526">
        <time>2026-04-09T18:28:30.836Z</time>
      </trkpt>
      <trkpt lat="50.82014" lon="4.39527">
        <time>2026-04-09T18:28:40.305Z</time>
      </trkpt>
      <trkpt lat="50.82015" lon="4.3953">
        <time>2026-04-09T18:28:57.461Z</time>
      </trkpt>
      <trkpt lat="50.82016" lon="4.39533">
        <time>2026-04-09T18:29:14.617Z</time>
      </trkpt>
      <trkpt lat="50.82016" lon="4.39536">
        <time>2026-04-09T18:29:29.790Z</time>
      </trkpt>
      <trkpt lat="50.82016" lon="4.39539">
        <time>2026-04-09T18:29:44.963Z</time>
      </trkpt>
      <trkpt lat="50.82016" lon="4.3954">
        <time>2026-04-09T18:29:50.020Z</time>
      </trkpt>
      <trkpt lat="50.82016" lon="4.39543">
        <time>2026-04-09T18:30:05.193Z</time>
      </trkpt>
      <trkpt lat="50.82016" lon="4.39546">
        <time>2026-04-09T18:30:20.366Z</time>
      </trkpt>
      <trkpt lat="50.82014" lon="4.39548">
        <time>2026-04-09T18:30:39.305Z</time>
      </trkpt>
      <trkpt lat="50.82013" lon="4.39551">
        <time>2026-04-09T18:30:56.461Z</time>
      </trkpt>
      <trkpt lat="50.8201" lon="4.39553">
        <time>2026-04-09T18:31:22.522Z</time>
      </trkpt>
      <trkpt lat="50.82008" lon="4.39555">
        <time>2026-04-09T18:31:41.461Z</time>
      </trkpt>
      <trkpt lat="50.82007" lon="4.39555">
        <time>2026-04-09T18:31:49.467Z</time>
      </trkpt>
      <trkpt lat="50.82006" lon="4.39556">
        <time>2026-04-09T18:31:58.936Z</time>
      </trkpt>
      <trkpt lat="50.82005" lon="4.39556">
        <time>2026-04-09T18:32:06.942Z</time>
      </trkpt>
      <trkpt lat="50.82002" lon="4.39555">
        <time>2026-04-09T18:32:31.486Z</time>
      </trkpt>
      <trkpt lat="50.81998" lon="4.39555">
        <time>2026-04-09T18:33:03.510Z</time>
      </trkpt>
      <trkpt lat="50.81995" lon="4.39556">
        <time>2026-04-09T18:33:28.054Z</time>
      </trkpt>
      <trkpt lat="50.81992" lon="4.39558">
        <time>2026-04-09T18:33:54.115Z</time>
      </trkpt>
      <trkpt lat="50.81989" lon="4.39561">
        <time>2026-04-09T18:34:22.524Z</time>
      </trkpt>
      <trkpt lat="50.81955" lon="4.396">
        <time>2026-04-09T18:39:58.687Z</time>
      </trkpt>
      <trkpt lat="50.81953" lon="4.39602">
        <time>2026-04-09T18:40:17.626Z</time>
      </trkpt>
      <trkpt lat="50.81951" lon="4.39604">
        <time>2026-04-09T18:40:36.565Z</time>
      </trkpt>
      <trkpt lat="50.81949" lon="4.39604">
        <time>2026-04-09T18:40:52.577Z</time>
      </trkpt>
      <trkpt lat="50.81947" lon="4.39604">
        <time>2026-04-09T18:41:08.589Z</time>
      </trkpt>
      <trkpt lat="50.81944" lon="4.39602">
        <time>2026-04-09T18:41:34.650Z</time>
      </trkpt>
      <trkpt lat="50.81943" lon="4.39601">
        <time>2026-04-09T18:41:44.119Z</time>
      </trkpt>
      <trkpt lat="50.8194346" lon="4.3960129">
        <time>2026-04-09T18:41:48.083Z</time>
      </trkpt>
      <trkpt lat="50.81942" lon="4.39608">
        <time>2026-04-09T18:42:23.978Z</time>
      </trkpt>
      <trkpt lat="50.81941" lon="4.39611">
        <time>2026-04-09T18:42:41.134Z</time>
      </trkpt>
      <trkpt lat="50.81941" lon="4.39612">
        <time>2026-04-09T18:42:46.191Z</time>
      </trkpt>
      <trkpt lat="50.8194" lon="4.39613">
        <time>2026-04-09T18:42:55.660Z</time>
      </trkpt>
      <trkpt lat="50.81931" lon="4.39623">
        <time>2026-04-09T18:44:23.694Z</time>
      </trkpt>
      <trkpt lat="50.8193071" lon="4.396231">
        <time>2026-04-09T18:44:26.070Z</time>
      </trkpt>
      <trkpt lat="50.81932" lon="4.39626">
        <time>2026-04-09T18:44:44.009Z</time>
      </trkpt>
      <trkpt lat="50.8193183" lon="4.396255">
        <time>2026-04-09T18:44:46.880Z</time>
      </trkpt>
      <trkpt lat="50.81921" lon="4.39639">
        <time>2026-04-09T18:46:37.244Z</time>
      </trkpt>
      <trkpt lat="50.81911" lon="4.39653">
        <time>2026-04-09T18:48:24.126Z</time>
      </trkpt>
      <trkpt lat="50.8191" lon="4.39653">
        <time>2026-04-09T18:48:32.132Z</time>
      </trkpt>
      <trkpt lat="50.81909" lon="4.39653">
        <time>2026-04-09T18:48:40.138Z</time>
      </trkpt>
      <trkpt lat="50.81909" lon="4.39652">
        <time>2026-04-09T18:48:45.195Z</time>
      </trkpt>
      <trkpt lat="50.81896" lon="4.39627">
        <time>2026-04-09T18:51:28.968Z</time>
      </trkpt>
      <trkpt lat="50.818961" lon="4.3962738">
        <time>2026-04-09T18:51:31.050Z</time>
      </trkpt>
      <trkpt lat="50.81882" lon="4.39644">
        <time>2026-04-09T18:53:51.796Z</time>
      </trkpt>
      <trkpt lat="50.81877" lon="4.39647">
        <time>2026-04-09T18:54:34.605Z</time>
      </trkpt>
      <trkpt lat="50.81874" lon="4.3966">
        <time>2026-04-09T18:55:44.608Z</time>
      </trkpt>
      <trkpt lat="50.81873" lon="4.39666">
        <time>2026-04-09T18:56:15.994Z</time>
      </trkpt>
      <trkpt lat="50.81872" lon="4.3967">
        <time>2026-04-09T18:56:37.752Z</time>
      </trkpt>
      <trkpt lat="50.81872" lon="4.39673">
        <time>2026-04-09T18:56:52.926Z</time>
      </trkpt>
      <trkpt lat="50.81872" lon="4.39675">
        <time>2026-04-09T18:57:03.042Z</time>
      </trkpt>
      <trkpt lat="50.81873" lon="4.3968">
        <time>2026-04-09T18:57:29.568Z</time>
      </trkpt>
      <trkpt lat="50.8187284" lon="4.3967953">
        <time>2026-04-09T18:57:32.268Z</time>
      </trkpt>
      <trkpt lat="50.8186" lon="4.39675">
        <time>2026-04-09T18:59:17.587Z</time>
      </trkpt>
      <trkpt lat="50.81853" lon="4.39672">
        <time>2026-04-09T19:00:15.647Z</time>
      </trkpt>
      <trkpt lat="50.81842" lon="4.39664">
        <time>2026-04-09T19:01:52.564Z</time>
      </trkpt>
      <trkpt lat="50.81835" lon="4.39662">
        <time>2026-04-09T19:02:49.511Z</time>
      </trkpt>
      <trkpt lat="50.81824" lon="4.39665">
        <time>2026-04-09T19:04:18.874Z</time>
      </trkpt>
      <trkpt lat="50.8182386" lon="4.3966512">
        <time>2026-04-09T19:04:20.148Z</time>
      </trkpt>
      <trkpt lat="50.81821" lon="4.39662">
        <time>2026-04-09T19:04:47.956Z</time>
      </trkpt>
      <trkpt lat="50.8182148" lon="4.3966205">
        <time>2026-04-09T19:04:51.807Z</time>
      </trkpt>
      <trkpt lat="50.81821" lon="4.39666">
        <time>2026-04-09T19:05:12.152Z</time>
      </trkpt>
      <trkpt lat="50.81821" lon="4.39677">
        <time>2026-04-09T19:06:07.790Z</time>
      </trkpt>
      <trkpt lat="50.81821" lon="4.39688">
        <time>2026-04-09T19:07:03.428Z</time>
      </trkpt>
      <trkpt lat="50.8182" lon="4.39697">
        <time>2026-04-09T19:07:49.649Z</time>
      </trkpt>
      <trkpt lat="50.8182" lon="4.39705">
        <time>2026-04-09T19:08:30.113Z</time>
      </trkpt>
      <trkpt lat="50.81819" lon="4.39713">
        <time>2026-04-09T19:09:11.361Z</time>
      </trkpt>
      <trkpt lat="50.81818" lon="4.39717">
        <time>2026-04-09T19:09:33.119Z</time>
      </trkpt>
      <trkpt lat="50.81817" lon="4.39722">
        <time>2026-04-09T19:09:59.646Z</time>
      </trkpt>
      <trkpt lat="50.81812" lon="4.39737">
        <time>2026-04-09T19:11:25.429Z</time>
      </trkpt>
      <trkpt lat="50.8181" lon="4.39741">
        <time>2026-04-09T19:11:51.230Z</time>
      </trkpt>
      <trkpt lat="50.81812" lon="4.39751">
        <time>2026-04-09T19:12:44.284Z</time>
      </trkpt>
      <trkpt lat="50.81821" lon="4.39782">
        <time>2026-04-09T19:15:36.847Z</time>
      </trkpt>
      <trkpt lat="50.81823" lon="4.39788">
        <time>2026-04-09T19:16:11.160Z</time>
      </trkpt>
      <trkpt lat="50.81824" lon="4.39792">
        <time>2026-04-09T19:16:32.918Z</time>
      </trkpt>
      <trkpt lat="50.81825" lon="4.39794">
        <time>2026-04-09T19:16:45.818Z</time>
      </trkpt>
      <trkpt lat="50.81827" lon="4.39799">
        <time>2026-04-09T19:17:15.750Z</time>
      </trkpt>
      <trkpt lat="50.81833" lon="4.3981">
        <time>2026-04-09T19:18:29.255Z</time>
      </trkpt>
      <trkpt lat="50.81836" lon="4.39815">
        <time>2026-04-09T19:19:04.132Z</time>
      </trkpt>
      <trkpt lat="50.8183604" lon="4.3981546">
        <time>2026-04-09T19:19:06.480Z</time>
      </trkpt>
      <trkpt lat="50.8184" lon="4.3981">
        <time>2026-04-09T19:19:48.525Z</time>
      </trkpt>
      <trkpt lat="50.81844" lon="4.39805">
        <time>2026-04-09T19:20:29.331Z</time>
      </trkpt>
      <trkpt lat="50.81847" lon="4.39803">
        <time>2026-04-09T19:20:55.392Z</time>
      </trkpt>
      <trkpt lat="50.81851" lon="4.39801">
        <time>2026-04-09T19:21:28.975Z</time>
      </trkpt>
      <trkpt lat="50.81856" lon="4.398">
        <time>2026-04-09T19:22:09.323Z</time>
      </trkpt>
      <trkpt lat="50.8186" lon="4.398">
        <time>2026-04-09T19:22:41.347Z</time>
      </trkpt>
      <trkpt lat="50.81864" lon="4.39801">
        <time>2026-04-09T19:23:13.768Z</time>
      </trkpt>
      <trkpt lat="50.81866" lon="4.39803">
        <time>2026-04-09T19:23:32.707Z</time>
      </trkpt>
      <trkpt lat="50.8186605" lon="4.3980322">
        <time>2026-04-09T19:23:33.889Z</time>
      </trkpt>
      <trkpt lat="50.81864" lon="4.3981">
        <time>2026-04-09T19:24:11.907Z</time>
      </trkpt>
      <trkpt lat="50.8186397" lon="4.3980986">
        <time>2026-04-09T19:24:12.654Z</time>
      </trkpt>
      <trkpt lat="50.8186" lon="4.39807">
        <time>2026-04-09T19:24:47.575Z</time>
      </trkpt>
      <trkpt lat="50.81854" lon="4.39808">
        <time>2026-04-09T19:25:35.876Z</time>
      </trkpt>
      <trkpt lat="50.81849" lon="4.3981">
        <time>2026-04-09T19:26:17.164Z</time>
      </trkpt>
      <trkpt lat="50.81844" lon="4.39814">
        <time>2026-04-09T19:27:02.016Z</time>
      </trkpt>
      <trkpt lat="50.81841" lon="4.39817">
        <time>2026-04-09T19:27:30.425Z</time>
      </trkpt>
      <trkpt lat="50.81839" lon="4.39824">
        <time>2026-04-09T19:28:09.283Z</time>
      </trkpt>
      <trkpt lat="50.81836" lon="4.39829">
        <time>2026-04-09T19:28:44.160Z</time>
      </trkpt>
      <trkpt lat="50.81833" lon="4.39843">
        <time>2026-04-09T19:29:58.934Z</time>
      </trkpt>
      <trkpt lat="50.81833" lon="4.39846">
        <time>2026-04-09T19:30:14.108Z</time>
      </trkpt>
      <trkpt lat="50.81832" lon="4.39852">
        <time>2026-04-09T19:30:45.494Z</time>
      </trkpt>
      <trkpt lat="50.81831" lon="4.3986">
        <time>2026-04-09T19:31:26.742Z</time>
      </trkpt>
      <trkpt lat="50.8183" lon="4.39863">
        <time>2026-04-09T19:31:43.898Z</time>
      </trkpt>
      <trkpt lat="50.81826" lon="4.39883">
        <time>2026-04-09T19:33:30.006Z</time>
      </trkpt>
      <trkpt lat="50.8182647" lon="4.3988269">
        <time>2026-04-09T19:33:34.082Z</time>
      </trkpt>
      <trkpt lat="50.81872" lon="4.39935">
        <time>2026-04-09T19:41:04.499Z</time>
      </trkpt>
      <trkpt lat="50.81877" lon="4.39941">
        <time>2026-04-09T19:41:54.732Z</time>
      </trkpt>
      <trkpt lat="50.81879" lon="4.39943">
        <time>2026-04-09T19:42:13.671Z</time>
      </trkpt>
      <trkpt lat="50.81881" lon="4.39944">
        <time>2026-04-09T19:42:30.462Z</time>
      </trkpt>
      <trkpt lat="50.81882" lon="4.39945">
        <time>2026-04-09T19:42:39.931Z</time>
      </trkpt>
      <trkpt lat="50.81888" lon="4.39947">
        <time>2026-04-09T19:43:29.020Z</time>
      </trkpt>
      <trkpt lat="50.81899" lon="4.39949">
        <time>2026-04-09T19:44:57.665Z</time>
      </trkpt>
      <trkpt lat="50.8189909" lon="4.3994874">
        <time>2026-04-09T19:44:59.164Z</time>
      </trkpt>
      <trkpt lat="50.81901" lon="4.39947">
        <time>2026-04-09T19:45:16.807Z</time>
      </trkpt>
      <trkpt lat="50.81915" lon="4.39922">
        <time>2026-04-09T19:48:05.781Z</time>
      </trkpt>
      <trkpt lat="50.81917" lon="4.39919">
        <time>2026-04-09T19:48:27.840Z</time>
      </trkpt>
      <trkpt lat="50.8192" lon="4.39916">
        <time>2026-04-09T19:48:56.249Z</time>
      </trkpt>
      <trkpt lat="50.81924" lon="4.39916">
        <time>2026-04-09T19:49:28.273Z</time>
      </trkpt>
      <trkpt lat="50.81926" lon="4.39916">
        <time>2026-04-09T19:49:44.285Z</time>
      </trkpt>
      <trkpt lat="50.81927" lon="4.39915">
        <time>2026-04-09T19:49:53.754Z</time>
      </trkpt>
      <trkpt lat="50.81929" lon="4.39915">
        <time>2026-04-09T19:50:09.766Z</time>
      </trkpt>
      <trkpt lat="50.81933" lon="4.39906">
        <time>2026-04-09T19:51:05.423Z</time>
      </trkpt>
      <trkpt lat="50.8193286" lon="4.3990551">
        <time>2026-04-09T19:51:08.143Z</time>
      </trkpt>
      <trkpt lat="50.81939" lon="4.39914">
        <time>2026-04-09T19:52:13.414Z</time>
      </trkpt>
      <trkpt lat="50.81942" lon="4.3992">
        <time>2026-04-09T19:52:52.115Z</time>
      </trkpt>
      <trkpt lat="50.81945" lon="4.39927">
        <time>2026-04-09T19:53:34.898Z</time>
      </trkpt>
      <trkpt lat="50.81952" lon="4.39937">
        <time>2026-04-09T19:54:50.389Z</time>
      </trkpt>
      <trkpt lat="50.8195155" lon="4.3993718">
        <time>2026-04-09T19:54:54.104Z</time>
      </trkpt>
      <trkpt lat="50.81971" lon="4.39895">
        <time>2026-04-09T19:59:18.230Z</time>
      </trkpt>
      <trkpt lat="50.8197109" lon="4.398953">
        <time>2026-04-09T19:59:19.909Z</time>
      </trkpt>
      <trkpt lat="50.8197109" lon="4.398953">
        <time>2026-04-09T19:59:19.909Z</time>
      </trkpt>
      <trkpt lat="50.8197109" lon="4.398953">
        <time>2026-04-09T19:59:19.909Z</time>
      </trkpt>
    </trkseg>
  </trk>
</gpx>
